NORAD_CAT_ID,OBJECT_NAME,OBJECT_TYPE,EPOCH,MEAN_MOTION,ECCENTRICITY,INCLINATION,RA_OF_ASC_NODE,ARG_OF_PERICENTER,MEAN_ANOMALY,BSTAR,MEAN_MOTION_DOT,MEAN_MOTION_DDOT,TLE_LINE0,TLE_LINE1,TLE_LINE2,SEMIMAJOR_AXIS,PERIOD,APOGEE,PERIGEE,DECAYED
51999.0,STARLINK-3667,PAYLOAD,2024-01-18 03:46:29,15.08843705,0.0001849,53.2189,287.5414,120.839,239.2785,0.00012042,1.629e-05,0.0,0 STARLINK-3667,1 51999U 22025AV  24018.15729001  .00001629  00000-0  12042-3 0  9994,2 51999  53.2189 287.5414 0001849 120.8390 239.2785 15.08843705104449,6917.869,95.437,541.013,538.455,0.0
51999.0,STARLINK-3667,PAYLOAD,2024-01-18 21:15:43,15.08855653,0.0001276,53.2174,284.2746,104.0212,256.0922,0.00019418,2.805e-05,0.0,0 STARLINK-3667,1 51999U 22025AV  24018.88592002  .00002805  00000-0  19418-3 0  9994,2 51999  53.2174 284.2746 0001276 104.0212 256.0922 15.08855653103046,6917.833,95.437,540.58,538.815,0.0
51999.0,STARLINK-3667,PAYLOAD,2024-01-19 03:37:14,15.08864628,0.0001589,53.2183,283.0786,100.616,259.5012,0.0002257,3.308e-05,0.0,0 STARLINK-3667,1 51999U 22025AV  24019.15086698  .00003308  00000-0  22570-3 0  9996,2 51999  53.2183 283.0786 0001589 100.6160 259.5012 15.08864628104599,6917.805,95.436,540.769,538.571,0.0
51999.0,STARLINK-3667,PAYLOAD,2024-01-19 16:20:21,15.08853991,0.0001312,53.217,280.7064,100.7032,259.4108,-2.7059e-05,-7.19e-06,0.0,0 STARLINK-3667,1 51999U 22025AV  24019.68080499 -.00000719  00000-0 -27059-4 0  9990,2 51999  53.2170 280.7064 0001312 100.7032 259.4108 15.08853991104676,6917.838,95.437,540.61,538.795,0.0
51999.0,STARLINK-3667,PAYLOAD,2024-01-19 22:41:53,15.08855823,0.0001496,53.2171,279.5168,123.3667,236.7468,-2.739e-05,-7.24e-06,0.0,0 STARLINK-3667,1 51999U 22025AV  24019.94575959 -.00000724  00000-0 -27390-4 0  9993,2 51999  53.2171 279.5168 0001496 123.3667 236.7468 15.08855823103207,6917.832,95.437,540.732,538.662,0.0
51999.0,STARLINK-3667,PAYLOAD,2024-01-20 00:17:16,15.08856722,0.0001432,53.2174,279.2194,113.8703,246.244,-2.303e-06,-3.25e-06,0.0,0 STARLINK-3667,1 51999U 22025AV  24020.01199813 -.00000325  00000-0 -23030-5 0  9999,2 51999  53.2174 279.2194 0001432 113.8703 246.2440 15.08856722103217,6917.829,95.436,540.685,538.704,0.0
51999.0,STARLINK-3667,PAYLOAD,2024-01-20 17:46:32,15.08848128,0.0001412,53.217,275.9471,97.5587,262.5565,-0.00027156,-4.608e-05,0.0,0 STARLINK-3667,1 51999U 22025AV  24020.74065012 -.00004608  00000-0 -27156-3 0  9991,2 51999  53.2170 275.9471 0001412  97.5587 262.5565 15.08848128104839,6917.856,95.437,540.697,538.744,0.0
51999.0,STARLINK-3667,PAYLOAD,2024-01-20 22:32:41,15.08842163,0.000131,53.217,275.0547,86.3691,273.7451,-0.0002964,-5.002e-05,0.0,0 STARLINK-3667,1 51999U 22025AV  24020.93937413 -.00005002  00000-0 -29640-3 0  9994,2 51999  53.2170 275.0547 0001310  86.3691 273.7451 15.08842163103350,6917.874,95.437,540.645,538.833,0.0
51999.0,STARLINK-3667,PAYLOAD,2024-01-21 22:23:28,15.08838054,0.0001378,53.2175,270.599,88.0429,272.0721,5.9128e-05,6.53e-06,0.0,0 STARLINK-3667,1 51999U 22025AV  24021.93296677  .00000653  00000-0  59128-4 0  9995,2 51999  53.2175 270.5990 0001378  88.0429 272.0721 15.08838054103502,6917.886,95.438,540.705,538.798,0.0
51999.0,STARLINK-3667,PAYLOAD,2024-01-22 01:34:13,15.0885038,0.0001286,53.2177,270.0016,95.0817,265.0322,0.00012236,1.661e-05,0.0,0 STARLINK-3667,1 51999U 22025AV  24022.06543722  .00001661  00000-0  12236-3 0  9994,2 51999  53.2177 270.0016 0001286  95.0817 265.0322 15.08850380105030,6917.849,95.437,540.603,538.824,0.0
51999.0,STARLINK-3667,PAYLOAD,2024-01-22 22:14:15,15.08831509,0.0001109,53.2155,266.1301,88.9829,271.129,0.00013546,1.868e-05,0.0,0 STARLINK-3667,1 51999U 22025AV  24022.92657257  .00001868  00000-0  13546-3 0  9992,2 51999  53.2155 266.1301 0001109  88.9829 271.1290 15.08831509103657,6917.906,95.438,540.539,539.004,0.0
51999.0,STARLINK-3667,PAYLOAD,2024-01-22 23:49:39,15.08833936,0.0001312,53.2164,265.837,67.5898,292.5233,0.00014803,2.068e-05,0.0,0 STARLINK-3667,1 51999U 22025AV  24022.99281299  .00002068  00000-0  14803-3 0  9998,2 51999  53.2164 265.8370 0001312  67.5898 292.5233 15.08833936105173,6917.899,95.438,540.672,538.856,0.0
51999.0,STARLINK-3667,PAYLOAD,2024-01-23 22:05:02,15.08846261,0.0001274,53.2171,261.6686,113.0978,247.0149,-8.2658e-05,-1.603e-05,0.0,0 STARLINK-3667,1 51999U 22025AV  24023.92017200 -.00001603  00000-0 -82658-4 0  9991,2 51999  53.2171 261.6686 0001274 113.0978 247.0149 15.08846261103802,6917.861,95.437,540.608,538.845,0.0
51999.0,STARLINK-3667,PAYLOAD,2024-01-24 20:20:26,15.08843097,0.0001392,53.2168,257.5104,87.807,272.3081,9.6682e-05,1.251e-05,0.0,0 STARLINK-3667,1 51999U 22025AV  24024.84753187  .00001251  00000-0  96682-4 0  9993,2 51999  53.2168 257.5104 0001392  87.8070 272.3081 15.08843097105452,6917.871,95.437,540.699,538.773,0.0
51999.0,STARLINK-3667,PAYLOAD,2024-01-24 21:55:49,15.08843649,0.0001429,53.2167,257.2144,84.4578,275.6577,9.971e-05,1.299e-05,0.0,0 STARLINK-3667,1 51999U 22025AV  24024.91377130  .00001299  00000-0  99710-4 0  9998,2 51999  53.2167 257.2144 0001429  84.4578 275.6577 15.08843649103951,6917.869,95.437,540.723,538.746,0.0
51999.0,STARLINK-3667,PAYLOAD,2024-01-25 20:11:14,15.08838967,0.000139,53.217,253.0431,89.0883,271.0269,6.5701e-05,7.58e-06,0.0,0 STARLINK-3667,1 51999U 22025AV  24025.84113466  .00000758  00000-0  65701-4 0  9993,2 51999  53.2170 253.0431 0001390  89.0883 271.0269 15.08838967105604,6917.884,95.438,540.71,538.787,0.0
51999.0,STARLINK-3667,PAYLOAD,2024-01-25 21:46:37,15.08831886,0.00012,53.2174,252.7472,69.3032,290.8088,1.4224e-05,-6.1e-07,0.0,0 STARLINK-3667,1 51999U 22025AV  24025.90738071 -.00000061  00000-0  14224-4 0  9997,2 51999  53.2174 252.7472 0001200  69.3032 290.8088 15.08831886104101,6917.905,95.438,540.6,538.94,0.0
51999.0,STARLINK-3667,PAYLOAD,2024-01-26 18:26:40,15.08800081,0.0001997,53.2172,248.8793,28.9968,331.1135,0.00028675,4.274e-05,0.0,0 STARLINK-3667,1 51999U 22025AV  24026.76851872  .00004274  00000-0  28675-3 0  9990,2 51999  53.2172 248.8793 0001997  28.9968 331.1135 15.08800081105749,6918.002,95.44,541.249,538.486,0.0
51999.0,STARLINK-3667,PAYLOAD,2024-01-26 21:37:25,15.08832235,0.0001555,53.2169,248.2892,87.2633,272.8537,-3.0891e-06,-3.37e-06,0.0,0 STARLINK-3667,1 51999U 22025AV  24026.90098846 -.00000337  00000-0 -30891-5 0  9993,2 51999  53.2169 248.2892 0001555  87.2633 272.8537 15.08832235105761,6917.904,95.438,540.845,538.693,0.0
51999.0,STARLINK-3667,PAYLOAD,2024-01-27 19:52:48,15.08847395,0.0001456,53.2162,244.1253,62.2381,297.8759,0.00021848,3.192e-05,0.0,0 STARLINK-3667,1 51999U 22025AV  24027.82833526  .00003192  00000-0  21848-3 0  9997,2 51999  53.2162 244.1253 0001456  62.2381 297.8759 15.08847395105905,6917.858,95.437,540.73,538.716,0.0
51999.0,STARLINK-3667,PAYLOAD,2024-01-27 21:28:12,15.08813065,0.0001621,53.2168,243.8289,79.8305,280.287,0.00078203,0.00012171,0.0,0 STARLINK-3667,1 51999U 22025AV  24027.89458406  .00012171  00000-0  78203-3 0  9998,2 51999  53.2168 243.8289 0001621  79.8305 280.2870 15.08813065104401,6917.963,95.439,540.949,538.706,0.0
51999.0,STARLINK-3667,PAYLOAD,2024-01-27 23:03:34,15.08856,0.000152,53.2168,243.5327,74.0999,286.0161,0.00016994,2.419e-05,0.0,0 STARLINK-3667,1 51999U 22025AV  24027.96081152  .00002419  00000-0  16994-3 0  9999,2 51999  53.2168 243.5327 0001520  74.0999 286.0161 15.08856000105926,6917.831,95.437,540.748,538.645,0.0
51999.0,STARLINK-3667,PAYLOAD,2024-01-28 19:43:35,15.08844314,0.000156,53.2164,239.6723,87.6284,272.4887,5.9375e-05,6.57e-06,0.0,0 STARLINK-3667,1 51999U 22025AV  24028.82193974  .00000657  00000-0  59375-4 0  9994,2 51999  53.2164 239.6723 0001560  87.6284 272.4887 15.08844314106053,6917.867,95.437,540.811,538.653,0.0
51999.0,STARLINK-3667,PAYLOAD,2024-01-28 21:18:59,15.088429,0.0001512,53.2172,239.3733,85.6933,274.4232,0.00010794,1.43e-05,0.0,0 STARLINK-3667,1 51999U 22025AV  24028.88818300  .00001430  00000-0  10794-3 0  9998,2 51999  53.2172 239.3733 0001512  85.6933 274.4232 15.08842900104554,6917.872,95.437,540.783,538.691,0.0
51999.0,STARLINK-3667,PAYLOAD,2024-01-28 22:54:21,15.08845606,0.000167,53.2174,239.074,103.9028,256.215,5.1143e-05,5.26e-06,0.0,0 STARLINK-3667,1 51999U 22025AV  24028.95442067  .00000526  00000-0  51143-4 0  9998,2 51999  53.2174 239.0740 0001670 103.9028 256.2150 15.08845606104569,6917.863,95.437,540.884,538.573,0.0
51999.0,STARLINK-3667,PAYLOAD,2024-01-29 22:45:08,15.08849101,0.0001477,53.2167,234.6145,85.0414,275.0746,4.6074e-05,4.46e-06,0.0,0 STARLINK-3667,1 51999U 22025AV  24029.94801451  .00000446  00000-0  46074-4 0  9992,2 51999  53.2167 234.6145 0001477  85.0414 275.0746 15.08849101106224,6917.853,95.437,540.739,538.696,0.0
51999.0,STARLINK-3667,PAYLOAD,2024-01-30 13:03:36,15.08843466,0.0001346,53.2159,231.9379,86.3257,273.7889,6.007e-05,6.68e-06,0.0,0 STARLINK-3667,1 51999U 22025AV  24030.54417549  .00000668  00000-0  60070-4 0  9999,2 51999  53.2159 231.9379 0001346  86.3257 273.7889 15.08843466104801,6917.87,95.437,540.666,538.804,0.0
51999.0,STARLINK-3667,PAYLOAD,2024-01-30 19:25:09,15.08842973,0.0001373,53.2161,230.7478,86.3643,273.7506,4.8418e-05,4.83e-06,0.0,0 STARLINK-3667,1 51999U 22025AV  24030.80913557  .00000483  00000-0  48418-4 0  9995,2 51999  53.2161 230.7478 0001373  86.3643 273.7506 15.08842973106350,6917.871,95.437,540.686,538.786,0.0
51999.0,STARLINK-3667,PAYLOAD,2024-01-31 12:54:23,15.08839907,0.0001451,53.2163,227.4774,80.4999,279.6157,7.211e-05,8.6e-06,0.0,0 STARLINK-3667,1 51999U 22025AV  24031.53777578  .00000860  00000-0  72110-4 0  9992,2 51999  53.2163 227.4774 0001451  80.4999 279.6157 15.08839907104954,6917.881,95.438,540.749,538.742,0.0
51999.0,STARLINK-3667,PAYLOAD,2024-01-31 22:26:42,15.0884056,0.0001443,53.2161,225.6931,80.4237,279.6918,6.9961e-05,8.26e-06,0.0,0 STARLINK-3667,1 51999U 22025AV  24031.93521536  .00000826  00000-0  69961-4 0  9999,2 51999  53.2161 225.6931 0001443  80.4237 279.6918 15.08840560105013,6917.879,95.438,540.742,538.745,0.0
